OBJECT B                
1 51825U 22019B   25260.98368750  .00025540  00000+0  54742-3 0  9996
2 51825  97.3781 338.8619 0009562  54.4124 305.8014 15.44689025197370
